{
  "type": "FeatureCollection",
  "features": [
    {
      "type": "Feature",
      "properties": {
        "norad_id": 30360,
        "name": "FENGYUN 1C DEB",
        "group": "fengyun-1c-debris",
        "lat": 63.80864149289697,
        "lon": -106.26055093543012,
        "alt_km": 778.5184897060353,
        "timestamp": "2025-12-11T20:41:15.356764+00:00",
        "meta_object_name": "FENGYUN 1C DEB",
        "meta_object_id": "1999-025ABX",
        "meta_epoch": "2025-12-11T03:36:10.327392",
        "meta_mean_motion": 14.26482195,
        "meta_eccentricity": 0.00314589,
        "meta_inclination": 98.765,
        "meta_ra_of_asc_node": 54.747,
        "meta_arg_of_pericenter": 150.9979,
        "meta_mean_anomaly": 270.3357,
        "meta_ephemeris_type": 0,
        "meta_classification_type": "U",
        "meta_norad_cat_id": 30360,
        "meta_element_set_no": 999,
        "meta_rev_at_epoch": 97402,
        "meta_bstar": 0.0024281333,
        "meta_mean_motion_dot": 5.839e-05,
        "meta_mean_motion_ddot": 0,
        "tle_line1": "1 30360U 99025ABX 25345.15011953  .00005839  00000+0  24281-2 0  9994",
        "tle_line2": "2 30360  98.7650  54.7470 0031458 150.9979 270.3357 14.26482195974028"
      },
      "geometry": {
        "type": "Point",
        "coordinates": [
          -106.26055093543012,
          63.80864149289697
        ]
      }
    },
    {
      "type": "Feature",
      "properties": {
        "norad_id": 30361,
        "name": "FENGYUN 1C DEB",
        "group": "fengyun-1c-debris",
        "lat": -38.80109037231163,
        "lon": -165.15359762276185,
        "alt_km": 860.4541821114062,
        "timestamp": "2025-12-11T20:41:15.356774+00:00",
        "meta_object_name": "FENGYUN 1C DEB",
        "meta_object_id": "1999-025ABY",
        "meta_epoch": "2025-12-11T01:07:53.408352",
        "meta_mean_motion": 14.25343046,
        "meta_eccentricity": 0.00653569,
        "meta_inclination": 98.5692,
        "meta_ra_of_asc_node": 21.0139,
        "meta_arg_of_pericenter": 35.7086,
        "meta_mean_anomaly": 324.8439,
        "meta_ephemeris_type": 0,
        "meta_classification_type": "U",
        "meta_norad_cat_id": 30361,
        "meta_element_set_no": 999,
        "meta_rev_at_epoch": 97592,
        "meta_bstar": 0.0012872001,
        "meta_mean_motion_dot": 3.059e-05,
        "meta_mean_motion_ddot": 0,
        "tle_line1": "1 30361U 99025ABY 25345.04714593  .00003059  00000+0  12872-2 0  9998",
        "tle_line2": "2 30361  98.5692  21.0139 0065356  35.7086 324.8439 14.25343046975921"
      },
      "geometry": {
        "type": "Point",
        "coordinates": [
          -165.15359762276185,
          -38.80109037231163
        ]
      }
    },
    {
      "type": "Feature",
      "properties": {
        "norad_id": 30362,
        "name": "FENGYUN 1C DEB",
        "group": "fengyun-1c-debris",
        "lat": -80.1729179328386,
        "lon": 21.739146441159193,
        "alt_km": 847.5078351577349,
        "timestamp": "2025-12-11T20:41:15.356784+00:00",
        "meta_object_name": "FENGYUN 1C DEB",
        "meta_object_id": "1999-025ABZ",
        "meta_epoch": "2025-12-10T06:00:17.959104",
        "meta_mean_motion": 14.11790293,
        "meta_eccentricity": 0.009597,
        "meta_inclination": 99.0483,
        "meta_ra_of_asc_node": 267.0313,
        "meta_arg_of_pericenter": 350.4567,
        "meta_mean_anomaly": 9.4778,
        "meta_ephemeris_type": 0,
        "meta_classification_type": "U",
        "meta_norad_cat_id": 30362,
        "meta_element_set_no": 999,
        "meta_rev_at_epoch": 96133,
        "meta_bstar": 0.0042327,
        "meta_mean_motion_dot": 8.022e-05,
        "meta_mean_motion_ddot": 0,
        "tle_line1": "1 30362U 99025ABZ 25344.25020786  .00008022  00000+0  42327-2 0  9998",
        "tle_line2": "2 30362  99.0483 267.0313 0095970 350.4567   9.4778 14.11790293961335"
      },
      "geometry": {
        "type": "Point",
        "coordinates": [
          21.739146441159193,
          -80.1729179328386
        ]
      }
    },
    {
      "type": "Feature",
      "properties": {
        "norad_id": 30363,
        "name": "FENGYUN 1C DEB",
        "group": "fengyun-1c-debris",
        "lat": 33.62118868383881,
        "lon": -116.94481961440476,
        "alt_km": 847.0663720300035,
        "timestamp": "2025-12-11T20:41:15.356793+00:00",
        "meta_object_name": "FENGYUN 1C DEB",
        "meta_object_id": "1999-025ACA",
        "meta_epoch": "2025-12-09T15:28:09.507936",
        "meta_mean_motion": 14.16849111,
        "meta_eccentricity": 0.0079456,
        "meta_inclination": 99.0304,
        "meta_ra_of_asc_node": 54.7348,
        "meta_arg_of_pericenter": 48.2589,
        "meta_mean_anomaly": 312.5343,
        "meta_ephemeris_type": 0,
        "meta_classification_type": "U",
        "meta_norad_cat_id": 30363,
        "meta_element_set_no": 999,
        "meta_rev_at_epoch": 96780,
        "meta_bstar": 0.0021732,
        "meta_mean_motion_dot": 4.448e-05,
        "meta_mean_motion_ddot": 0,
        "tle_line1": "1 30363U 99025ACA 25343.64455449  .00004448  00000+0  21732-2 0  9994",
        "tle_line2": "2 30363  99.0304  54.7348 0079456  48.2589 312.5343 14.16849111967807"
      },
      "geometry": {
        "type": "Point",
        "coordinates": [
          -116.94481961440476,
          33.62118868383881
        ]
      }
    },
    {
      "type": "Feature",
      "properties": {
        "norad_id": 30364,
        "name": "FENGYUN 1C DEB",
        "group": "fengyun-1c-debris",
        "lat": -78.95686551158718,
        "lon": 35.1348935316747,
        "alt_km": 718.2356375610016,
        "timestamp": "2025-12-11T20:41:15.356803+00:00",
        "meta_object_name": "FENGYUN 1C DEB",
        "meta_object_id": "1999-025ACB",
        "meta_epoch": "2025-12-08T05:44:01.310784",
        "meta_mean_motion": 14.16943722,
        "meta_eccentricity": 0.03331866,
        "meta_inclination": 98.1364,
        "meta_ra_of_asc_node": 258.9532,
        "meta_arg_of_pericenter": 333.5102,
        "meta_mean_anomaly": 180.7922,
        "meta_ephemeris_type": 0,
        "meta_classification_type": "U",
        "meta_norad_cat_id": 30364,
        "meta_element_set_no": 999,
        "meta_rev_at_epoch": 95577,
        "meta_bstar": 0.0044562781,
        "meta_mean_motion_dot": 0.00015436,
        "meta_mean_motion_ddot": 0,
        "tle_line1": "1 30364U 99025ACB 25342.23890406  .00015436  00000+0  44563-2 0  9991",
        "tle_line2": "2 30364  98.1364 258.9532 0333186 333.5102 180.7922 14.16943722955775"
      },
      "geometry": {
        "type": "Point",
        "coordinates": [
          35.1348935316747,
          -78.95686551158718
        ]
      }
    },
    {
      "type": "Feature",
      "properties": {
        "norad_id": 30365,
        "name": "FENGYUN 1C DEB",
        "group": "fengyun-1c-debris",
        "lat": 81.24295979152382,
        "lon": -119.79116906199552,
        "alt_km": 708.3089055773326,
        "timestamp": "2025-12-11T20:41:15.356813+00:00",
        "meta_object_name": "FENGYUN 1C DEB",
        "meta_object_id": "1999-025ACC",
        "meta_epoch": "2025-12-11T12:22:45.520896",
        "meta_mean_motion": 14.19227851,
        "meta_eccentricity": 0.01679364,
        "meta_inclination": 98.6191,
        "meta_ra_of_asc_node": 339.9295,
        "meta_arg_of_pericenter": 114.9226,
        "meta_mean_anomaly": 9.6188,
        "meta_ephemeris_type": 0,
        "meta_classification_type": "U",
        "meta_norad_cat_id": 30365,
        "meta_element_set_no": 999,
        "meta_rev_at_epoch": 97595,
        "meta_bstar": 0.0002936492,
        "meta_mean_motion_dot": 6.67e-06,
        "meta_mean_motion_ddot": 0,
        "tle_line1": "1 30365U 99025ACC 25345.51580464  .00000667  00000+0  29365-3 0  9990",
        "tle_line2": "2 30365  98.6191 339.9295 0167936 114.9226   9.6188 14.19227851975957"
      },
      "geometry": {
        "type": "Point",
        "coordinates": [
          -119.79116906199552,
          81.24295979152382
        ]
      }
    },
    {
      "type": "Feature",
      "properties": {
        "norad_id": 30366,
        "name": "FENGYUN 1C DEB",
        "group": "fengyun-1c-debris",
        "lat": 44.93300900283117,
        "lon": 92.34075077605277,
        "alt_km": 774.1445048104297,
        "timestamp": "2025-12-11T20:41:15.356823+00:00",
        "meta_object_name": "FENGYUN 1C DEB",
        "meta_object_id": "1999-025ACD",
        "meta_epoch": "2025-12-11T05:42:20.069856",
        "meta_mean_motion": 14.33480635,
        "meta_eccentricity": 0.00619734,
        "meta_inclination": 98.9227,
        "meta_ra_of_asc_node": 262.68,
        "meta_arg_of_pericenter": 223.7827,
        "meta_mean_anomaly": 291.5688,
        "meta_ephemeris_type": 0,
        "meta_classification_type": "U",
        "meta_norad_cat_id": 30366,
        "meta_element_set_no": 999,
        "meta_rev_at_epoch": 98301,
        "meta_bstar": 0.00079750041,
        "meta_mean_motion_dot": 2.205e-05,
        "meta_mean_motion_ddot": 0,
        "tle_line1": "1 30366U 99025ACD 25345.23773229  .00002205  00000+0  79750-3 0  9996",
        "tle_line2": "2 30366  98.9227 262.6800 0061973 223.7827 291.5688 14.33480635983015"
      },
      "geometry": {
        "type": "Point",
        "coordinates": [
          92.34075077605277,
          44.93300900283117
        ]
      }
    }
  ]
}